{"type":"FeatureCollection","features":[{"type":"Feature","properties":{"name":"Wat Thatluang","stop_id":"TPL","order":3},"geometry":{"coordinates":[102.61802984047182,17.860881972858735],"type":"Point"}},{"type":"Feature","properties":{"name":"Nongkhamsean Temple","stop_id":"NKS","order":4},"geometry":{"coordinates":[102.67392916585736,17.831493670332637],"type":"Point"}},{"type":"Feature","properties":{"name":"Central Bus Station (Talat Sao)","stop_id":"CBS","order":1},"geometry":{"coordinates":[102.61553997799997,17.96388087062052],"type":"Point"}},{"type":"Feature","properties":{"name":"Ban Hom Village","stop_id":"HOM","order":2},"geometry":{"coordinates":[102.63179663954747,17.84155173592658],"type":"Point"}}]}